IRIDIUM 26              
1 24903U 97043A   25320.66174801  .00000820  00000+0  26850-3 0  9999
2 24903  86.3980  46.5196 0001944  91.9511 268.1909 14.37298363478649
IRIDIUM 22              
1 24907U 97043E   25320.71823671  .00000737  00000+0  24655-3 0  9993
2 24907  86.3981  50.1666 0002022  96.9103 263.2324 14.36095507478660
DUMMY MASS 1            
1 24925U 97048A   25320.36206504  .00000929  00000+0  10031-3 0  9995
2 24925  86.3350  64.9098 0005699 347.1132  12.9946 14.87148815527748
DUMMY MASS 2            
1 24926U 97048B   25320.34962253  .00000927  00000+0  10064-3 0  9998
2 24926  86.3348  66.5517 0006901 357.4463   2.6725 14.86899423527511
IRIDIUM 29              
1 24944U 97051A   25320.40747113  .00001021  00000+0  34079-3 0  9993
2 24944  86.3942  79.9984 0002167  97.3984 262.7459 14.36628316475123
IRIDIUM 33              
1 24946U 97051C   25320.62770734  .00000716  00000+0  24465-3 0  9992
2 24946  86.3859  79.1807 0006127 309.4940  50.5714 14.35010113474605
IRIDIUM 28              
1 24948U 97051E   25320.56338689  .00000893  00000+0  29159-3 0  9997
2 24948  86.3951  77.3606 0001618  83.9318 276.2064 14.37530023475739
IRIDIUM 36              
1 24967U 97056C   25320.71168343  .00000920  00000+0  29941-3 0  9998
2 24967  86.3936 108.9298 0001780  92.9319 267.2083 14.37750399474136
